IRIDIUM 144             
1 43249U 18030A   25338.64619665  .00000186  00000+0  59430-4 0  9997
2 43249  86.3977  11.7299 0002228  97.2845 262.8604 14.34218153402255
IRIDIUM 149             
1 43250U 18030B   25338.58276969  .00000227  00000+0  73995-4 0  9996
2 43250  86.3975  11.7255 0002177  95.1029 265.0415 14.34218186402263
IRIDIUM 157             
1 43251U 18030C   25338.60179899  .00000083  00000+0  22611-4 0  9993
2 43251  86.3977  11.7666 0002278  89.7287 270.4169 14.34218128402249
IRIDIUM 140             
1 43252U 18030D   25338.62082640  .00000032  00000+0  42607-5 0  9995
2 43252  86.3975  11.7716 0002128  96.7697 263.3741 14.34218876402305
IRIDIUM 145             
1 43253U 18030E   25338.60814155  .00000109  00000+0  31846-4 0  9995
2 43253  86.3978  11.7495 0002395 102.3501 257.7963 14.34218195402236
IRIDIUM 146             
1 43254U 18030F   25338.58911374  .00000032  00000+0  43629-5 0  9992
2 43254  86.3977  11.7704 0002297  97.3078 262.8379 14.34217812402246
IRIDIUM 148             
1 43255U 18030G   25338.62716792  .00000184  00000+0  58674-4 0  9998
2 43255  86.3976  11.7945 0002275  92.1625 267.9831 14.34219176402288
IRIDIUM 142             
1 43256U 18030H   25338.59545604  .00000193  00000+0  61874-4 0  9993
2 43256  86.3975  11.7040 0002410 102.1550 257.9916 14.34218379402247
